[{"OBJECT_NAME":"CS1","OBJECT_ID":"2021-088B","EPOCH":"2026-03-09T18:02:30.253920","MEAN_MOTION":15.31848439,"ECCENTRICITY":0.00141292,"INCLINATION":97.3882,"RA_OF_ASC_NODE":132.1684,"ARG_OF_PERICENTER":78.0335,"MEAN_ANOMALY":282.249,"EPHEMERIS_TYPE":0,"CLASSIFICATION_TYPE":"U","NORAD_CAT_ID":49261,"ELEMENT_SET_NO":999,"REV_AT_EPOCH":24518,"BSTAR":0.00051175576,"MEAN_MOTION_DOT":0.00015722,"MEAN_MOTION_DDOT":0},{"OBJECT_NAME":"STARLINK-35656","OBJECT_ID":"2025-257M","EPOCH":"2026-03-09T16:35:23.049600","MEAN_MOTION":15.30200233,"ECCENTRICITY":5.98e-5,"INCLINATION":53.1589,"RA_OF_ASC_NODE":219.8493,"ARG_OF_PERICENTER":71.1473,"MEAN_ANOMALY":288.9592,"EPHEMERIS_TYPE":0,"CLASSIFICATION_TYPE":"U","NORAD_CAT_ID":66391,"ELEMENT_SET_NO":999,"REV_AT_EPOCH":1979,"BSTAR":0.00072513138,"MEAN_MOTION_DOT":0.00021179,"MEAN_MOTION_DDOT":0}]
